ONEWEB-0327             
1 49196U 21083L   23309.90555851  .00000052  00000+0  10027-3 0  9997
2 49196  87.9234 165.2969 0002044  87.5377 272.5989 13.18686373104259
ONEWEB-0328             
1 49197U 21083M   23309.79287398  .00000218  00000+0  56121-3 0  9992
2 49197  87.8994 150.1633 0001463  90.7442 269.3854 13.13468424105612
ONEWEB-0331             
1 49198U 21083N   23309.84966651  .00000001  00000+0 -31068-4 0  9990
2 49198  87.9171 165.3061 0001661  86.5524 273.5798 13.18687044104235
ONEWEB-0333             
1 49199U 21083P   23309.93993654  .00000437  00000+0  11624-2 0  9990
2 49199  87.8994 150.1369 0001483  75.6658 284.4636 13.13467250105648
ONEWEB-0334             
1 49200U 21083Q   23309.87842319 -.00000357  00000+0 -90924-3 0  9991
2 49200  87.9150 104.4703 0001621  59.7194 300.4099 13.20771880110825
ONEWEB-0335             
1 49201U 21083R   23309.93570011  .00000415  00000+0  11020-2 0  9998
2 49201  87.8992 150.1265 0001439  87.7237 272.4057 13.13472811105657
ONEWEB-0336             
1 49202U 21083S   23309.59925954 -.00000178  00000+0 -52132-3 0  9999
2 49202  87.8994 150.1912 0001538  78.1894 281.9408 13.13469343105608
ONEWEB-0337             
1 49203U 21083T   23309.83626908 -.00000097  00000+0 -29923-3 0  9996
2 49203  87.8990 150.1423 0001512  89.3379 270.7923 13.13470939105630
